{
  "norad_id": 57903,
  "name": "STARLINK-30449",
  "history": [
    {
      "epoch": "2026-03-28T17:45:40.037472",
      "apogee_km": 486.39912889138486,
      "perigee_km": 484.669758234465,
      "latitude_deg": -39.73307740713044,
      "longitude_deg": 41.34448608011007,
      "semi_major_axis_km": 6863.671443562925,
      "eccentricity": 0.00012598,
      "inclination_deg": 43.0,
      "raan_deg": 206.2738,
      "arg_perigee_deg": 279.2699,
      "mean_anomaly_deg": 80.8009,
      "mean_motion_rev_day": 15.26750366
    }
  ]
}